SatCatId,ObjectName,LaunchYear,OrbitalPeriod,LaunchMass,StatusCode,Inclination,Status,UcsData,OrbitClassEstimated,LaunchSiteCountry,Owner,UseType,Purpose,LaunchVehicleClass,TLE1,TLE2,MeanMotion,Eccentricity,OrbitClass
60369,STARLINK-32266,2024,94.11,-1.0,+,53.16,Active,0,LEO,USA,USA,Unknown,Unknown,Unknown,1 60369U 24138Q   25262.71319557  .00000754  00000+0  37593-4 0  9993,2 60369  53.1625  11.2495 0001144  78.8186 281.2943 15.30195465 64624,15.30195465,0.0001144,LEO
60370,STARLINK-32220,2024,94.1,-1.0,+,53.16,Active,0,LEO,USA,USA,Unknown,Unknown,Unknown,1 60370U 24138R   25262.61680319 -.00006235  00000+0 -19844-3 0  9991,2 60370  53.1625  24.3560 0001684 101.5505 258.5685 15.30218932 64436,15.30218932,0.0001684,LEO
60371,STARLINK-32263,2024,94.11,-1.0,+,53.16,Active,0,LEO,USA,USA,Unknown,Unknown,Unknown,1 60371U 24138S   25263.03390892  .00000224  00000+0  19690-4 0  9993,2 60371  53.1627  21.9846 0001177  92.8124 267.3011 15.30200189 64408,15.30200189,0.0001177,LEO
60372,STARLINK-32268,2024,94.11,-1.0,+,53.16,Active,0,LEO,USA,USA,Unknown,Unknown,Unknown,1 60372U 24138T   25262.63160033  .00003687  00000+0  13656-3 0  9992,2 60372  53.1607  24.4538 0001104  69.2541 290.8578 15.30197473 64437,15.30197473,0.0001104,LEO
60373,STARLINK-32223,2024,94.11,-1.0,+,53.16,Active,0,LEO,USA,USA,Unknown,Unknown,Unknown,1 60373U 24138U   25263.06873559  .00001158  00000+0  51222-4 0  9998,2 60373  53.1609  22.2013 0001292  61.5518 298.5613 15.30197410 64404,15.3019741,0.0001292,LEO
60374,STARLINK-32180,2024,94.11,-1.0,+,53.16,Active,0,LEO,USA,USA,Unknown,Unknown,Unknown,1 60374U 24138V   25263.07084196  .00000075  00000+0  14661-4 0  9994,2 60374  53.1629  22.2126 0001165  87.7039 272.4095 15.30202714 64509,15.30202714,0.0001165,LEO
60375,STARLINK-32281,2024,94.11,-1.0,+,53.16,Active,0,LEO,USA,USA,Unknown,Unknown,Unknown,1 60375U 24138W   25263.04340533  .00000058  00000+0  14071-4 0  9998,2 60375  53.1623  22.0416 0001166 106.9862 253.1267 15.30199700 64409,15.301997,0.0001166,LEO
60376,STARLINK-32277,2024,94.11,-1.0,+,53.16,Active,0,LEO,USA,USA,Unknown,Unknown,Unknown,1 60376U 24138X   25262.61997256  .00004101  00000+0  15049-3 0  9999,2 60376  53.1604  24.3734 0001080  74.4542 285.6578 15.30200062 64438,15.30200062,0.000108,LEO
60377,STARLINK-32269,2024,94.1,-1.0,+,53.16,Active,0,LEO,USA,USA,Unknown,Unknown,Unknown,1 60377U 24138Y   25263.06134341 -.00003893  00000+0 -11935-3 0  9997,2 60377  53.1646  22.1515 0001250  95.7155 264.3988 15.30207185 64503,15.30207185,0.000125,LEO
60379,QIANFAN-1,2024,106.59,-1.0,+,88.98,Active,0,LEO,PRC,China,Unknown,Unknown,Unknown,1 60379U 24140A   25263.22193339  .00000086  00000+0  11450-3 0  9993,2 60379  88.9782 307.9373 0019738  96.6672 263.6727 13.50972890 56070,13.5097289,0.0019738,LEO
60380,QIANFAN-2,2024,106.59,-1.0,+,88.98,Active,0,LEO,PRC,China,Unknown,Unknown,Unknown,1 60380U 24140B   25263.32464444  .00000075  00000+0  97053-4 0  9996,2 60380  88.9768 307.7776 0014760  72.7550 287.5215 13.50965013 56145,13.50965013,0.001476,LEO
60381,QIANFAN-3,2024,106.59,-1.0,+,88.98,Active,0,LEO,PRC,China,Unknown,Unknown,Unknown,1 60381U 24140C   25263.25886361  .00000076  00000+0  98876-4 0  9990,2 60381  88.9761 307.9232 0016055  83.6007 276.6972 13.50965085 56042,13.50965085,0.0016055,LEO
60382,QIANFAN-4,2024,106.59,-1.0,+,88.98,Active,0,LEO,PRC,China,Unknown,Unknown,Unknown,1 60382U 24140D   25263.23427470  .00000104  00000+0  14220-3 0  9993,2 60382  88.9786 307.8024 0015044  75.2141 285.0676 13.50972313 56161,13.50972313,0.0015044,LEO
60383,QIANFAN-5,2024,106.59,-1.0,+,88.98,Active,0,LEO,PRC,China,Unknown,Unknown,Unknown,1 60383U 24140E   25263.28360347  .00000087  00000+0  11530-3 0  9999,2 60383  88.9761 307.9463 0017409  93.1652 267.1491 13.50968161 56034,13.50968161,0.0017409,LEO
60384,QIANFAN-6,2024,106.59,-1.0,+,88.98,Active,0,LEO,PRC,China,Unknown,Unknown,Unknown,1 60384U 24140F   25263.30420076  .00000092  00000+0  12334-3 0  9998,2 60384  88.9787 307.6681 0015241  80.0384 280.2487 13.50964140 56237,13.5096414,0.0015241,LEO
60385,QIANFAN-7,2024,100.87,-1.0,P,88.98,Active,0,LEO,PRC,China,Unknown,Unknown,Unknown,1 60385U 24140G   25263.26411348  .00000451  00000+0  17767-3 0  9990,2 60385  88.9788 303.5426 0013134 322.6030  37.4249 14.27551809 58489,14.27551809,0.0013134,LEO
60386,QIANFAN-8,2024,106.59,-1.0,+,88.98,Active,0,LEO,PRC,China,Unknown,Unknown,Unknown,1 60386U 24140H   25263.23832934  .00000083  00000+0  10980-3 0  9997,2 60386  88.9789 307.9110 0018716  81.6547 278.6725 13.50968005 56071,13.50968005,0.0018716,LEO
60387,QIANFAN-9,2024,106.59,-1.0,+,88.98,Active,0,LEO,PRC,China,Unknown,Unknown,Unknown,1 60387U 24140J   25263.28775205  .00000083  00000+0  10905-3 0  9997,2 60387  88.9787 307.9828 0018404  81.3825 278.9410 13.50970404 56065,13.50970404,0.0018404,LEO
60388,QIANFAN-10,2024,106.59,-1.0,+,88.98,Active,0,LEO,PRC,China,Unknown,Unknown,Unknown,1 60388U 24140K   25263.21779313  .00000086  00000+0  11410-3 0  9990,2 60388  88.9795 307.3295 0016470  61.7932 298.4880 13.50967687 56189,13.50967687,0.001647,LEO
60389,QIANFAN-11,2024,106.59,-1.0,+,88.97,Active,0,LEO,PRC,China,Unknown,Unknown,Unknown,1 60389U 24140L   25263.25478375  .00000074  00000+0  95819-4 0  9992,2 60389  88.9723 307.9749 0016422  81.4399 278.8613 13.50968163 55842,13.50968163,0.0016422,LEO
60390,QIANFAN-12,2024,106.59,-1.0,+,88.98,Active,0,LEO,PRC,China,Unknown,Unknown,Unknown,1 60390U 24140M   25263.27530459  .00000086  00000+0  11442-3 0  9990,2 60390  88.9766 307.9796 0015328  88.6882 271.6025 13.50968241 55972,13.50968241,0.0015328,LEO
60391,QIANFAN-13,2024,106.59,-1.0,+,88.98,Active,0,LEO,PRC,China,Unknown,Unknown,Unknown,1 60391U 24140N   25263.32058626  .00000078  00000+0  10190-3 0  9998,2 60391  88.9779 308.0645 0015165  90.8307 269.4582 13.50968278 56006,13.50968278,0.0015165,LEO
60392,QIANFAN-14,2024,106.59,-1.0,+,88.98,Active,0,LEO,PRC,China,Unknown,Unknown,Unknown,1 60392U 24140P   25263.27113825  .00000087  00000+0  11569-3 0  9997,2 60392  88.9757 307.9851 0018852  90.6619 269.6693 13.50969198 56007,13.50969198,0.0018852,LEO
60393,QIANFAN-15,2024,106.59,-1.0,+,88.98,Active,0,LEO,PRC,China,Unknown,Unknown,Unknown,1 60393U 24140Q   25263.27942362  .00000084  00000+0  11079-3 0  9997,2 60393  88.9780 307.9210 0014518  79.2346 281.0439 13.50972668 55997,13.50972668,0.0014518,LEO
60394,QIANFAN-16,2024,106.59,-1.0,+,88.98,Active,0,LEO,PRC,China,Unknown,Unknown,Unknown,1 60394U 24140R   25263.26715528  .00000088  00000+0  11798-3 0  9991,2 60394  88.9784 308.0398 0016800  94.1950 266.1121 13.50968246 55904,13.50968246,0.00168,LEO
60395,QIANFAN-17,2024,106.59,-1.0,+,88.98,Active,0,LEO,PRC,China,Unknown,Unknown,Unknown,1 60395U 24140S   25263.26290920  .00000084  00000+0  11090-3 0  9997,2 60395  88.9795 308.0768 0017160  88.6561 271.6556 13.50970004 56868,13.50970004,0.001716,LEO
60396,QIANFAN-18,2024,106.59,-1.0,+,88.98,Active,0,LEO,PRC,China,Unknown,Unknown,Unknown,1 60396U 24140T   25263.24237950  .00000076  00000+0  99578-4 0  9999,2 60396  88.9787 307.6188 0016297  73.6454 286.6488 13.50971745 56252,13.50971745,0.0016297,LEO
60398,STARLINK-11228 [DTC],2024,91.74,-1.0,+,53.16,Active,0,LEO,USA,USA,Unknown,Unknown,Unknown,1 60398U 24141A   25263.12561503  .00008357  00000+0  73838-4 0  9994,2 60398  53.1577 207.1005 0001375  89.9840 270.1336 15.69686408 64909,15.69686408,0.0001375,LEO
60399,STARLINK-11182 [DTC],2024,91.74,-1.0,+,53.16,Active,0,LEO,USA,USA,Unknown,Unknown,Unknown,1 60399U 24141B   25263.11089929 -.00000181  00000+0  33705-5 0  9999,2 60399  53.1606 207.0030 0001801  91.9949 268.1275 15.69709095 64959,15.69709095,0.0001801,LEO
60400,STARLINK-11234 [DTC],2024,91.74,-1.0,+,53.16,Active,0,LEO,USA,USA,Unknown,Unknown,Unknown,1 60400U 24141C   25262.27828980 -.00000254  00000+0  27634-5 0  9991,2 60400  53.1590 211.0498 0001389  92.5184 267.5993 15.69711666 64773,15.69711666,0.0001389,LEO
60401,STARLINK-11232 [DTC],2024,91.74,-1.0,+,53.16,Active,0,LEO,USA,USA,Unknown,Unknown,Unknown,1 60401U 24141D   25262.84641046 -.00000358  00000+0  18994-5 0  9995,2 60401  53.1564 208.1906 0000872  95.3035 264.8083 15.69704675 64916,15.69704675,8.72e-05,LEO
60402,STARLINK-11139 [DTC],2024,91.74,-1.0,+,53.16,Active,0,LEO,USA,USA,Unknown,Unknown,Unknown,1 60402U 24141E   25262.58682676 -.00000912  00000+0 -26659-5 0  9995,2 60402  53.1592 209.4154 0001313  83.2751 276.8417 15.69711016 64875,15.69711016,0.0001313,LEO
60403,STARLINK-11158 [DTC],2024,91.74,-1.0,+,53.16,Active,0,LEO,USA,USA,Unknown,Unknown,Unknown,1 60403U 24141F   25262.58201942  .00000327  00000+0  75512-5 0  9999,2 60403  53.1584 210.1177 0000774  92.2719 267.8387 15.69711616 64811,15.69711616,7.74e-05,LEO
60404,STARLINK-11199 [DTC],2024,91.74,-1.0,+,53.16,Active,0,LEO,USA,USA,Unknown,Unknown,Unknown,1 60404U 24141G   25262.83179442 -.00001025  00000+0 -36052-5 0  9991,2 60404  53.1595 208.8271 0001053 107.1258 252.9876 15.69706711 64906,15.69706711,0.0001053,LEO
60405,STARLINK-11081 [DTC],2024,91.74,-1.0,+,53.16,Active,0,LEO,USA,USA,Unknown,Unknown,Unknown,1 60405U 24141H   25263.14523089  .00000072  00000+0  54559-5 0  9998,2 60405  53.1577 207.2256 0001142  90.9163 269.1986 15.69713524 64908,15.69713524,0.0001142,LEO
60406,STARLINK-11150 [DTC],2024,91.74,-1.0,+,53.16,Active,0,LEO,USA,USA,Unknown,Unknown,Unknown,1 60406U 24141J   25263.14032589 -.00001794  00000+0 -99432-5 0  9992,2 60406  53.1599 207.1946 0001213  92.4185 267.6971 15.69720669 64958,15.69720669,0.0001213,LEO
60407,STARLINK-11136 [DTC],2024,91.74,-1.0,+,53.16,Active,0,LEO,USA,USA,Unknown,Unknown,Unknown,1 60407U 24141K   25263.13542151  .00000354  00000+0  77834-5 0  9994,2 60407  53.1605 207.1605 0001390  88.5719 271.5458 15.69711911 64903,15.69711911,0.000139,LEO
